{
  "type": "FeatureCollection",
  "features": [
    {
      "type": "Feature",
      "properties": {
        "norad_id": 66725,
        "name": "FLOCK 4H-22",
        "group": "last-30-days",
        "lat": -27.060700294906198,
        "lon": -111.63060525840405,
        "alt_km": 518.6125774976808,
        "timestamp": "2025-12-26T16:33:54.329948+00:00",
        "meta_object_name": "FLOCK 4H-22",
        "meta_object_id": "2025-276BM",
        "meta_epoch": "2025-12-26T06:09:34.503840",
        "meta_mean_motion": 15.17534497,
        "meta_eccentricity": 0.00014593,
        "meta_inclination": 97.437,
        "meta_ra_of_asc_node": 71.7699,
        "meta_arg_of_pericenter": 269.1483,
        "meta_mean_anomaly": 90.9583,
        "meta_ephemeris_type": 0,
        "meta_classification_type": "U",
        "meta_norad_cat_id": 66725,
        "meta_element_set_no": 999,
        "meta_rev_at_epoch": 417,
        "meta_bstar": 0.00030128151,
        "meta_mean_motion_dot": 5.979e-05,
        "meta_mean_motion_ddot": 0,
        "tle_line1": "1 66725U 25276BM  25360.25664935  .00005979  00000+0  30128-3 0  9990",
        "tle_line2": "2 66725  97.4370  71.7699 0001459 269.1483  90.9583 15.17534497  4171"
      },
      "geometry": {
        "type": "Point",
        "coordinates": [
          -111.63060525840405,
          -27.060700294906198
        ]
      }
    },
    {
      "type": "Feature",
      "properties": {
        "norad_id": 66726,
        "name": "FLOCK 4H-23",
        "group": "last-30-days",
        "lat": -3.5825389653555066,
        "lon": -108.25622229030628,
        "alt_km": 516.3858783090718,
        "timestamp": "2025-12-26T16:33:54.329968+00:00",
        "meta_object_name": "FLOCK 4H-23",
        "meta_object_id": "2025-276BN",
        "meta_epoch": "2025-12-26T04:40:40.402848",
        "meta_mean_motion": 15.17140851,
        "meta_eccentricity": 0.0003123,
        "meta_inclination": 97.4433,
        "meta_ra_of_asc_node": 71.7263,
        "meta_arg_of_pericenter": 216.8223,
        "meta_mean_anomaly": 143.2796,
        "meta_ephemeris_type": 0,
        "meta_classification_type": "U",
        "meta_norad_cat_id": 66726,
        "meta_element_set_no": 999,
        "meta_rev_at_epoch": 416,
        "meta_bstar": -0.003188659,
        "meta_mean_motion_dot": -0.00062741,
        "meta_mean_motion_ddot": 0,
        "tle_line1": "1 66726U 25276BN  25360.19491207 -.00062741  00000+0 -31887-2 0  9998",
        "tle_line2": "2 66726  97.4433  71.7263 0003123 216.8223 143.2796 15.17140851  4164"
      },
      "geometry": {
        "type": "Point",
        "coordinates": [
          -108.25622229030628,
          -3.5825389653555066
        ]
      }
    },
    {
      "type": "Feature",
      "properties": {
        "norad_id": 66727,
        "name": "FLOCK 4H-24",
        "group": "last-30-days",
        "lat": -14.499026010247642,
        "lon": -109.71762739316678,
        "alt_km": 517.2416914764062,
        "timestamp": "2025-12-26T16:33:54.329980+00:00",
        "meta_object_name": "FLOCK 4H-24",
        "meta_object_id": "2025-276BP",
        "meta_epoch": "2025-12-26T06:12:50.880672",
        "meta_mean_motion": 15.17367381,
        "meta_eccentricity": 0.00028905,
        "meta_inclination": 97.4435,
        "meta_ra_of_asc_node": 71.7961,
        "meta_arg_of_pericenter": 245.1608,
        "meta_mean_anomaly": 114.9325,
        "meta_ephemeris_type": 0,
        "meta_classification_type": "U",
        "meta_norad_cat_id": 66727,
        "meta_element_set_no": 999,
        "meta_rev_at_epoch": 417,
        "meta_bstar": 0.00028284594,
        "meta_mean_motion_dot": 5.582e-05,
        "meta_mean_motion_ddot": 0,
        "tle_line1": "1 66727U 25276BP  25360.25892223  .00005582  00000+0  28285-3 0  9996",
        "tle_line2": "2 66727  97.4435  71.7961 0002890 245.1608 114.9325 15.17367381  4177"
      },
      "geometry": {
        "type": "Point",
        "coordinates": [
          -109.71762739316678,
          -14.499026010247642
        ]
      }
    },
    {
      "type": "Feature",
      "properties": {
        "norad_id": 66728,
        "name": "FLOCK 4H-25",
        "group": "last-30-days",
        "lat": -74.49537949657297,
        "lon": 100.33805503613392,
        "alt_km": 519.6279211424198,
        "timestamp": "2025-12-26T16:33:54.329989+00:00",
        "meta_object_name": "FLOCK 4H-25",
        "meta_object_id": "2025-276BQ",
        "meta_epoch": "2025-12-26T05:49:43.408128",
        "meta_mean_motion": 15.18254469,
        "meta_eccentricity": 0.00017531,
        "meta_inclination": 97.439,
        "meta_ra_of_asc_node": 71.799,
        "meta_arg_of_pericenter": 114.6687,
        "meta_mean_anomaly": 245.473,
        "meta_ephemeris_type": 0,
        "meta_classification_type": "U",
        "meta_norad_cat_id": 66728,
        "meta_element_set_no": 999,
        "meta_rev_at_epoch": 345,
        "meta_bstar": 0.00029383512,
        "meta_mean_motion_dot": 5.952e-05,
        "meta_mean_motion_ddot": 0,
        "tle_line1": "1 66728U 25276BQ  25360.24286352  .00005952  00000+0  29384-3 0  9998",
        "tle_line2": "2 66728  97.4390  71.7990 0001753 114.6687 245.4730 15.18254469  3457"
      },
      "geometry": {
        "type": "Point",
        "coordinates": [
          100.33805503613392,
          -74.49537949657297
        ]
      }
    },
    {
      "type": "Feature",
      "properties": {
        "norad_id": 66729,
        "name": "FLOCK 4H-26",
        "group": "last-30-days",
        "lat": 5.074903749694674,
        "lon": -107.14337574673095,
        "alt_km": 515.568209224326,
        "timestamp": "2025-12-26T16:33:54.329999+00:00",
        "meta_object_name": "FLOCK 4H-26",
        "meta_object_id": "2025-276BR",
        "meta_epoch": "2025-12-26T06:17:59.024544",
        "meta_mean_motion": 15.17197559,
        "meta_eccentricity": 0.00034344,
        "meta_inclination": 97.4388,
        "meta_ra_of_asc_node": 71.7719,
        "meta_arg_of_pericenter": 237.862,
        "meta_mean_anomaly": 122.2281,
        "meta_ephemeris_type": 0,
        "meta_classification_type": "U",
        "meta_norad_cat_id": 66729,
        "meta_element_set_no": 999,
        "meta_rev_at_epoch": 417,
        "meta_bstar": 0.00038076321,
        "meta_mean_motion_dot": 7.503e-05,
        "meta_mean_motion_ddot": 0,
        "tle_line1": "1 66729U 25276BR  25360.26248871  .00007503  00000+0  38076-3 0  9997",
        "tle_line2": "2 66729  97.4388  71.7719 0003434 237.8620 122.2281 15.17197559  4175"
      },
      "geometry": {
        "type": "Point",
        "coordinates": [
          -107.14337574673095,
          5.074903749694674
        ]
      }
    },
    {
      "type": "Feature",
      "properties": {
        "norad_id": 66730,
        "name": "FLOCK 4H-27",
        "group": "last-30-days",
        "lat": -82.55471029797589,
        "lon": 160.41538223756837,
        "alt_km": 519.6430714665357,
        "timestamp": "2025-12-26T16:33:54.330009+00:00",
        "meta_object_name": "FLOCK 4H-27",
        "meta_object_id": "2025-276BS",
        "meta_epoch": "2025-12-26T05:53:12.801120",
        "meta_mean_motion": 15.18128417,
        "meta_eccentricity": 0.00014289,
        "meta_inclination": 97.4365,
        "meta_ra_of_asc_node": 71.7869,
        "meta_arg_of_pericenter": 127.5168,
        "meta_mean_anomaly": 232.6196,
        "meta_ephemeris_type": 0,
        "meta_classification_type": "U",
        "meta_norad_cat_id": 66730,
        "meta_element_set_no": 999,
        "meta_rev_at_epoch": 417,
        "meta_bstar": 0.00044272764,
        "meta_mean_motion_dot": 8.972e-05,
        "meta_mean_motion_ddot": 0,
        "tle_line1": "1 66730U 25276BS  25360.24528705  .00008972  00000+0  44273-3 0  9991",
        "tle_line2": "2 66730  97.4365  71.7869 0001428 127.5168 232.6196 15.18128417  4170"
      },
      "geometry": {
        "type": "Point",
        "coordinates": [
          160.41538223756837,
          -82.55471029797589
        ]
      }
    },
    {
      "type": "Feature",
      "properties": {
        "norad_id": 66731,
        "name": "FLOCK 4H-28",
        "group": "last-30-days",
        "lat": 3.5584211524331053,
        "lon": -107.3463372363264,
        "alt_km": 516.1252773600108,
        "timestamp": "2025-12-26T16:33:54.330018+00:00",
        "meta_object_name": "FLOCK 4H-28",
        "meta_object_id": "2025-276BT",
        "meta_epoch": "2025-12-26T01:32:39.047712",
        "meta_mean_motion": 15.17174833,
        "meta_eccentricity": 0.00032547,
        "meta_inclination": 97.4376,
        "meta_ra_of_asc_node": 71.5739,
        "meta_arg_of_pericenter": 246.397,
        "meta_mean_anomaly": 113.6922,
        "meta_ephemeris_type": 0,
        "meta_classification_type": "U",
        "meta_norad_cat_id": 66731,
        "meta_element_set_no": 999,
        "meta_rev_at_epoch": 414,
        "meta_bstar": 0.00032028848,
        "meta_mean_motion_dot": 6.295e-05,
        "meta_mean_motion_ddot": 0,
        "tle_line1": "1 66731U 25276BT  25360.06434083  .00006295  00000+0  32029-3 0  9999",
        "tle_line2": "2 66731  97.4376  71.5739 0003254 246.3970 113.6922 15.17174833  4141"
      },
      "geometry": {
        "type": "Point",
        "coordinates": [
          -107.3463372363264,
          3.5584211524331053
        ]
      }
    }
  ]
}